STARLINK-32114          
1 60287C 24132K   25088.41229167 -.00003196  00000+0 -10772-3 0   889
2 60287  53.1599 216.5275 0001292  91.7729 222.9693 15.30198166    18
STARLINK-31997          
1 60288C 24132L   25088.41368056  .00001472  00000+0  49602-4 0   889
2 60288  53.1590 215.8797 0001204  93.7713 194.3557 15.30191556    16
STARLINK-32000          
1 60289C 24132M   25088.40604167  .00019404  00000+0  65414-3 0   887
2 60289  53.1593 216.3759 0000974  79.5636 293.8273 15.30165038    19
STARLINK-32141          
1 60290C 24132N   25088.40743056 -.00056257  00000+0 -18943-2 0   883
2 60290  53.1577 216.1967 0001454  94.9548  13.2183 15.30278022    11
STARLINK-32142          
1 60291C 24132P   25088.40881944 -.00022201  00000+0 -74825-3 0   887
2 60291  53.1585 215.9600 0001226  98.6099 133.6377 15.30214502    16
STARLINK-32149          
1 60292C 24132Q   25088.40673611 -.00001555  00000+0 -52428-4 0   883
2 60292  53.1597 216.4072 0001226  82.3799 277.3777 15.30187411    14
STARLINK-32159          
1 60293C 24132R   25088.40743056  .00002457  00000+0  82819-4 0   882
2 60293  53.1587 215.9429 0001502 106.3553 129.8773 15.30187472    10
STARLINK-32150          
1 60294C 24132S   25088.41159722 -.00004827  00000+0 -16270-3 0   887
2 60294  53.1598 216.4186 0001412  92.6964 276.3998 15.30194009    13
STARLINK-32126          
1 60295C 24132T   25088.40743056 -.00013176  00000+0 -44403-3 0   882
2 60295  53.1598 216.5728 0001271  91.1586 185.1548 15.30208853    15
STARLINK-32143          
1 60296C 24132U   25088.40604167 -.00007494  00000+0 -25255-3 0   882
2 60296  53.1600 216.4793 0001380 101.1075 219.8924 15.30200841    19
STARLINK-32034          
1 60297C 24132V   25088.40881944 -.00015790  00000+0 -53224-3 0   888
2 60297  53.1587 216.3157 0001210  80.5466 331.4029 15.30203427    13
STARLINK-32124          
1 60298C 24132W   25088.40673611 -.00024091  00000+0 -81188-3 0   883
2 60298  53.1600 216.4637 0001292  85.2056 245.4409 15.30218793    19
STARLINK-32151          
1 60299C 24132X   25088.40604167 -.01306600  00000+0 -26693-1 0   882
2 60299  53.1600 188.1877 0001279  69.8717  43.6793 15.46887905    16
STARLINK-32134          
1 60300C 24132Y   25088.41298611  .00034326  00000+0  11572-2 0   880
2 60300  53.1579 216.1921 0001358  66.8585  60.4438 15.30147757    14
STARLINK-11147 [DTC]    
1 60301C 24133A   25088.44006944  .00012507  00000+0  10303-3 0   880
2 60301  53.1572  48.4030 0001111  97.8441 337.4134 15.69694846    15
STARLINK-11128 [DTC]    
1 60302C 24133B   25088.44145833 -.00068985  00000+0 -56906-3 0   884
2 60302  53.1572  48.3388 0001124  90.7294  20.2129 15.69743863    18
STARLINK-11227 [DTC]    
1 60303C 24133C   25088.44493056  .00002553  00000+0  21029-4 0   884
2 60303  53.1572  48.2645 0001143  86.5525  71.6544 15.69705068    11
STARLINK-11224 [DTC]    
1 60304C 24133D   25088.44493056  .00000679  00000+0  55950-5 0   883
2 60304  53.1570  48.2072 0001126  89.3597  96.5813 15.69707778    10
STARLINK-11115 [DTC]    
1 60305C 24133E   25088.44631944  .00010737  00000+0  88451-4 0   881
2 60305  53.1570  48.1433 0001122  94.9696 126.5710 15.69697758    15
STARLINK-11109 [DTC]    
1 60306C 24133F   25088.44145833  .00013450  00000+0  11080-3 0   887
2 60306  53.1570  48.1101 0001140  96.0666 125.7293 15.69694701    10
STARLINK-11223 [DTC]    
1 60307C 24133G   25088.44006944  .00046000  00000+0  37918-3 0   882
2 60307  53.1566  48.0026 0001088  98.7629 170.7139 15.69647258    14
STARLINK-11192 [DTC]    
1 60308C 24133H   25088.44423611  .00007351  00000+0  60552-4 0   884
2 60308  53.1566  48.0393 0001078  92.4954 172.7377 15.69701082    15
STARLINK-11213 [DTC]    
1 60309C 24133J   25088.44145833  .00004218  00000+0  34743-4 0   884
2 60309  53.1566  47.9386 0001123  95.4672 209.5350 15.69703455    13
STARLINK-11200 [DTC]    
1 60310C 24133K   25088.44284722  .00002195  00000+0  18079-4 0   883
2 60310  53.1567  47.8743 0001099  94.6190 245.9694 15.69706459    12
STARLINK-11208 [DTC]    
1 60311C 24133L   25088.44145833 -.00017953  00000+0 -14784-3 0   881
2 60311  53.1572  48.5594 0001129  88.0609 271.8536 15.69734086    17
STARLINK-11206 [DTC]    
1 60312C 24133M   25088.44215278  .00002320  00000+0  19116-4 0   888
2 60312  53.1572  48.4983 0001087  98.5897 292.9764 15.69704068    11
STARLINK-11205 [DTC]    
1 60313C 24133N   25088.44562500 -.00019064  00000+0 -15713-3 0   885
2 60313  53.1572  48.4237 0001290  92.3842 346.5773 15.69713837    12
STARLINK-32191          
1 60314C 24133P   25088.40743056  .00007511  00000+0  25318-3 0   883
2 60314  53.1577 100.7195 0001382  91.1407  68.1568 15.30179281    15
STARLINK-32194          
1 60315C 24133Q   25088.41159722 -.00025442  00000+0 -85737-3 0   882
2 60315  53.1571 100.8627 0001211  89.3168  11.4914 15.30221826    14
STARLINK-32192          
1 60316C 24133R   25088.40812500 -.00022697  00000+0 -76476-3 0   881
2 60316  53.1591 100.4777 0001381  89.3681 195.8653 15.30222986    12
STARLINK-32189          
1 60317C 24133S   25088.40604167 -.00013712  00000+0 -46207-3 0   887
2 60317  53.1570 100.8640 0001253  89.9874 351.8361 15.30209471    15
STARLINK-32190          
1 60318C 24133T   25088.41090278  .00011893  00000+0  40094-3 0   885
2 60318  53.1570 100.7358 0001227  96.0629  64.9341 15.30172000    16
STARLINK-32182          
1 60319C 24133U   25088.40951389 -.00017157  00000+0 -57819-3 0   888
2 60319  53.1571 100.8612 0001193  85.7824   9.3579 15.30213143    16
STARLINK-32199          
1 60320C 24133V   25088.41229167 -.00010046  00000+0 -33857-3 0   889
2 60320  53.1569 100.7652 0001378  85.4602  65.7204 15.30201739    13
STARLINK-32198          
1 60321C 24133W   25088.40743056  .00008559  00000+0  28853-3 0   881
2 60321  53.1569 100.8909 0001225  88.0560 343.9991 15.30175996    12
STARLINK-31745          
1 60329C 24136A   25088.40743056 -.00016126  00000+0 -54351-3 0   885
2 60329  53.1577 239.7953 0001212  91.1835 344.7373 15.30206182    11
STARLINK-32153          
1 60330C 24136B   25088.40881944 -.00003097  00000+0 -10438-3 0   887
2 60330  53.1577 239.7776 0001271  90.7260 358.6680 15.30193036    16
STARLINK-32203          
1 60331C 24136C   25088.41159722 -.00016767  00000+0 -41832-3 0   881
2 60331  53.1584 229.6067 0001217  84.0434 129.7781 15.39636545    10
STARLINK-32171          
1 60332C 24136D   25088.41576389  .00025941  00000+0  81381-3 0   889
2 60332  53.1584 239.4321 0002032 348.9536 297.7812 15.32464848    13
STARLINK-32133          
1 60333C 24136E   25088.40812500 -.00000799  00000+0 -26914-4 0   885
2 60333  53.1569 239.7113 0001134  91.4597  29.0000 15.30192624    11
STARLINK-32132          
1 60334C 24136F   25088.40812500  .00016369  00000+0  55175-3 0   884
2 60334  53.1567 239.6413 0001317  92.4422  62.9320 15.30171897    13
STARLINK-32168          
1 60335C 24136G   25088.41090278  .00043013  00000+0  14486-2 0   881
2 60335  53.1569 239.5935 0000661  87.8650 100.1361 15.30174643    18
STARLINK-32079          
1 60336C 24136H   25088.41159722  .00009412  00000+0  31722-3 0   880
2 60336  53.1570 239.5550 0001097  89.6989 119.7055 15.30181172    14
STARLINK-32078          
1 60338C 24136K   25088.40604167  .00018937  00000+0  63833-3 0   889
2 60338  53.1575 239.5339 0001044  87.8532 114.2056 15.30168032    13
STARLINK-32175          
1 60339C 24136L   25088.40881944 -.00019271  00000+0 -64955-3 0   880
2 60339  53.1579 239.4976 0001245  92.5485 136.4432 15.30208961    17
STARLINK-32176          
1 60340C 24136M   25088.41159722  .00002996  00000+0  10100-3 0   882
2 60340  53.1581 239.4495 0001271  88.0953 173.6620 15.30184794    16
STARLINK-32185          
1 60341C 24136N   25088.40743056  .00057523  00000+0  19371-2 0   885
2 60341  53.1588 239.3873 0001094  61.6097 217.7426 15.30162142    19
STARLINK-32221          
1 60342C 24136P   25088.40743056 -.00006205  00000+0 -20915-3 0   886
2 60342  53.1585 239.4223 0001211  84.9335 177.1241 15.30194907    19
STARLINK-32083          
1 60343C 24136Q   25088.40812500  .00012877  00000+0  43403-3 0   885
2 60343  53.1585 239.3962 0000886  77.0181 183.0729 15.30177662    14
STARLINK-32077          
1 60344C 24136R   25088.41229167 -.00000789  00000+0 -26591-4 0   889
2 60344  53.1592 239.3293 0001351  89.7878 233.9749 15.30186002    16
STARLINK-32075          
1 60345C 24136S   25088.40673611 -.00004462  00000+0 -15040-3 0   884
2 60345  53.1592 239.3082 0001248  87.3416 229.0447 15.30196179    17
STARLINK-32082          
1 60346C 24136T   25088.41159722  .00014754  00000+0  49727-3 0   880
2 60346  53.1593 239.2973 0001289  85.6159 251.7512 15.30175895    14
STARLINK-32084          
1 60347C 24136U   25088.40951389 -.00016157  00000+0 -54438-3 0   885
2 60347  53.1593 239.2714 0001140  61.5191 281.7772 15.30217051    15
STARLINK-32081          
1 60348C 24136V   25088.41368056  .00004480  00000+0  15099-3 0   884
2 60348  53.1591 239.2173 0001264  85.0852 298.6727 15.30183699    12
STARLINK-32181          
1 60349C 24136W   25088.41229167 -.00028830  00000+0 -97168-3 0   888
2 60349  53.1583 239.1198 0001159  91.7008 336.7402 15.30219932    14
STARLINK-32076          
1 60350C 24136X   25088.40812500 -.00010157  00000+0 -34232-3 0   884
2 60350  53.1586 239.1736 0001138  87.3636 300.6586 15.30202265    16
STARLINK-32097          
1 60351C 24136Y   25088.41159722 -.00008997  00000+0 -30324-3 0   883
2 60351  53.1581 239.0885 0001160  86.2533 355.8044 15.30201177    17
STARLINK-32285          
1 60355C 24138A   25088.41020833 -.00016766  00000+0 -56492-3 0   886
2 60355  53.1579 113.0650 0001364  90.1533  81.7523 15.30217444    10
STARLINK-32278          
1 60356C 24138B   25088.40951389 -.00009987  00000+0 -33654-3 0   887
2 60356  53.1571 113.7353 0001341  85.8926  99.0268 15.30207400    11
STARLINK-32287          
1 60358C 24138D   25088.41159722 -.00010799  00000+0 -36396-3 0   880
2 60358  53.1567 113.7027 0001225  82.4031 131.4480 15.30203356    10
